EWS-G2 (GOES 15)        
1 36411U 10008A   25165.62275925  .00000052  00000+0  00000+0 0  9996
2 36411   0.3255  85.5184 0002143 104.7696 358.4020  1.00269769 55952
GOES 16                 
1 41866U 16071A   25165.55656861 -.00000077  00000+0  00000+0 0  9994
2 41866   0.0491 247.7085 0001010 229.0125 242.0080  1.00273812 31416
GOES 17                 
1 43226U 18022A   25164.84265192 -.00000086  00000+0  00000+0 0  9998
2 43226   0.0279 213.9012 0002223 259.7735 347.8196  1.00322278 26733
GOES 18                 
1 51850U 22021A   25165.05048963  .00000111  00000+0  00000+0 0  9991
2 51850   0.0493 133.0001 0000405  17.0851 353.6923  1.00271837  2907
GOES 19                 
1 60133U 24119A   25165.49102045 -.00000234  00000+0  00000+0 0  9992
2 60133   0.0482 141.6792 0000307  11.2262 211.6978  1.00270425  3270
